{"fetched_at":"2026-03-29T16:36:15Z","count":15609,"tles":[{"name":"STARLINK-11615 [DTC]","line1":"1 63274U 25053K   26087.79912641  .00282683  00000+0  21078-2 0  9997","line2":"2 63274  43.0018 357.1569 0002837 284.5403  75.5150 15.71116454 60679","category":"Starlink"}]}